BADR-5                  
1 36592U 10025A   26197.20463383  .00000143  00000+0  00000+0 0  9993
2 36592   0.0517 114.7447 0005185  81.0882 202.3241  1.00271086 53506
COMS 1                  
1 36744U 10032A   26197.11908432 -.00000252  00000+0  00000+0 0  9991
2 36744   4.8776  75.0054 0011229  15.0057 205.2047  0.99167726 51375
ARABSAT-5A              
1 36745U 10032B   26197.27598304  .00000143  00000+0  00000+0 0  9990
2 36745   0.1135  66.9791 0005730  57.1916 299.8083  1.00274744 58932
ECHOSTAR 15             
1 36792U 10034A   26197.24975396 -.00000011  00000+0  00000+0 0  9996
2 36792   0.0459 261.5964 0001844 194.7853 168.7973  1.00272237 58619
BEIDOU-2 IGSO-1         
1 36828U 10036A   26195.91730701 -.00000122  00000+0  00000+0 0  9992
2 36828  54.3063 162.7092 0059022 225.2803 342.1032  1.00264343 58378
NILESAT 201             
1 36830U 10037A   26194.47961264 -.00000061  00000+0  00000+0 0  9998
2 36830   0.0241 122.3173 0005477  16.5206 318.1955  1.00271853 58643
RASCOM-QAF 1R           
1 36831U 10037B   26197.27043635  .00000008  00000+0  00000+0 0  9993
2 36831   0.0082  50.3714 0006233  55.7260 288.2617  1.00270766 58592
AEHF-1 (USA 214)        
1 36868U 10039A   26197.27589638  .00000133  00000+0  00000+0 0  9992
2 36868   8.2909  67.6666 0003773  37.3889 318.3453  1.00275160 53946
XM-5                    
1 37185U 10053A   26194.27598828 -.00000026  00000+0  00000+0 0  9991
2 37185   0.0648 265.0318 0001728 322.3275  47.9546  1.00270903 57741
BSAT-3B                 
1 37207U 10056B   26197.29166978 -.00000361  00000+0  00000+0 0  9993
2 37207   0.0736 245.1220 0002675 297.0340 326.8012  1.00270688 52391
BEIDOU-2 G4             
1 37210U 10057A   26196.80265584 -.00000126  00000+0  00000+0 0  9996
2 37210   3.7161  68.7688 0005655 184.0793 129.6659  1.00269871 57575
SKYTERRA 1              
1 37218U 10061A   26197.24419882 -.00000130  00000+0  00000+0 0  9995
2 37218   5.1852  50.8067 0002561  26.5971 203.2512  1.00270355 57486
HYLAS 1                 
1 37237U 10065A   26197.20532716  .00000126  00000+0  00000+0 0  9992
2 37237   5.7151  72.6599 0001169 145.8386 183.1672  1.00641499  7170
INTELSAT 17 (IS-17)     
1 37238U 10065B   26197.20650130  .00000000  00000+0  00000+0 0  9995
2 37238   0.0365  99.3839 0003057  35.9376 299.0401  1.00269284 53531
BEIDOU-2 IGSO-2         
1 37256U 10068A   26196.64956755 -.00000192  00000+0  00000+0 0  9990
2 37256  47.4956 271.4764 0056901 213.8035 150.3630  1.00272942 57089
EUTELSAT KA-SAT 9A      
1 37258U 10069A   26197.27164969  .00000051  00000+0  00000+0 0  9994
2 37258   0.0610 359.7158 0004534 144.3474 256.8222  1.00271046 44292
HISPASAT 30W-5          
1 37264U 10070A   26197.26393632 -.00000227  00000+0  00000+0 0  9999
2 37264   0.0309 108.8869 0005637  18.8778 231.3421  1.00270251 53479
KOREASAT 6              
1 37265U 10070B   26197.31975053 -.00000122  00000+0  00000+0 0  9993
2 37265   0.0162  54.2168 0002554  75.0148  79.9217  1.00271090 57064
BEIDOU-2 IGSO-3         
1 37384U 11013A   26196.50661554 -.00000166  00000+0  00000+0 0  9999
2 37384  62.4464  39.8847 0035199 183.4921 358.8227  1.00260311 55949
INTELSAT 28 (IS-28)     
1 37392U 11016A   26197.26367632 -.00000237  00000+0  00000+0 0  9994
2 37392   1.8795  82.2676 0003719  40.4363 234.6057  1.00272105 53572
YAHSAT 1A               
1 37393U 11016B   26195.42673919  .00000000  00000+0  00000+0 0  9996
2 37393   0.0273  65.8741 0003070  47.4743  25.0682  1.00269506 42681
SBIRS GEO-1 (USA 230)   
1 37481U 11019A   26197.20870718  .00000087  00000+0  00000+0 0  9996
2 37481   4.5984  53.0972 0001926  56.1202 311.7635  1.00272170 55696
TELSTAR 14R             
1 37602U 11021A   26195.54654036 -.00000288  00000+0  00000+0 0  9996
2 37602   0.0856  84.9749 0001600   1.1935 339.9946  1.00270342 56100
GSAT-8                  
1 37605U 11022A   26197.20957385  .00000073  00000+0  00000+0 0  9999
2 37605   2.2042  81.4677 0002626 160.8675 182.2450  1.00272000 53502
ST-2                    
1 37606U 11022B   26197.10580823 -.00000222  00000+0  00000+0 0  9995
2 37606   0.0153  66.1323 0001533  65.2216 288.6986  1.00271719 55564
ZHONGXING-10            
1 37677U 11026A   26197.14430444 -.00000200  00000+0  00000+0 0  9990
2 37677   1.1195  83.8499 0003278  19.6863 327.8650  1.00273563 55281
SES-3                   
1 37748U 11035A   26197.24419882 -.00000113  00000+0  00000+0 0  9996
2 37748   1.3998  82.7645 0001992  33.2008 163.0338  1.00271447 54885
KAZSAT-2                
1 37749U 11035B   26196.36016358 -.00000207  00000+0  00000+0 0  9994
2 37749   0.0270 112.5462 0001892  60.6657 336.1516  1.00272892 53680
BEIDOU-2 IGSO-4         
1 37763U 11038A   26193.91136250 -.00000017  00000+0  00000+0 0  9994
2 37763  54.6038 165.4445 0160342 231.4539 316.2369  1.00279714 54905
ASTRA 1N                
1 37775U 11041A   26197.27372970  .00000109  00000+0  00000+0 0  9996
2 37775   0.0617  12.0791 0005787 102.5572 297.1895  1.00270175 44815
BSAT-3C (JCSAT-110R)    
1 37776U 11041B   26197.29166978 -.00000361  00000+0  00000+0 0  9999
2 37776   0.0394 297.0941 0000173 264.7173 307.2614  1.00270872 50769
PAKSAT-1R               
1 37779U 11042A   26197.20610716  .00000143  00000+0  00000+0 0  9995
2 37779   0.7623  84.3194 0003092 351.1738 330.7141  1.00269121 54767
