OBJECT_NAME,OBJECT_ID,EPOCH,MEAN_MOTION,ECCENTRICITY,INCLINATION,RA_OF_ASC_NODE,ARG_OF_PERICENTER,MEAN_ANOMALY,EPHEMERIS_TYPE,CLASSIFICATION_TYPE,NORAD_CAT_ID,ELEMENT_SET_NO,REV_AT_EPOCH,BSTAR,MEAN_MOTION_DOT,MEAN_MOTION_DDOT
BADR-5,2010-025A,2026-07-16T04:54:40.362912,1.00271086,.00051854,0.0517,114.7447,81.0882,202.3241,0,U,36592,999,5350,0,.143E-5,0
COMS 1,2010-032A,2026-07-16T02:51:28.885248,0.99167726,.00112296,4.8776,75.0054,15.0057,205.2047,0,U,36744,999,5137,0,-.252E-5,0
ARABSAT-5A,2010-032B,2026-07-16T06:37:24.934656,1.00274744,.00057304,0.1135,66.9791,57.1916,299.8083,0,U,36745,999,5893,0,.143E-5,0
ECHOSTAR 15,2010-034A,2026-07-16T05:59:38.742144,1.00272237,.00018443,0.0459,261.5964,194.7853,168.7973,0,U,36792,999,5861,0,-.11E-6,0
BEIDOU-2 IGSO-1,2010-036A,2026-07-14T22:00:55.325664,1.00264343,.0059022,54.3063,162.7092,225.2803,342.1032,0,U,36828,999,5837,0,-.122E-5,0
NILESAT 201,2010-037A,2026-07-13T11:30:38.532096,1.00271853,.00054772,0.0241,122.3173,16.5206,318.1955,0,U,36830,999,5864,0,-.61E-6,0
RASCOM-QAF 1R,2010-037B,2026-07-16T06:29:25.700640,1.00270766,.00062332,0.0082,50.3714,55.7260,288.2617,0,U,36831,999,5859,0,.8E-7,0
AEHF-1 (USA 214),2010-039A,2026-07-16T06:37:17.447232,1.00275160,.00037731,8.2909,67.6666,37.3889,318.3453,0,U,36868,999,5394,0,.133E-5,0
XM-5,2010-053A,2026-07-13T06:37:25.387392,1.00270903,.0001728,0.0648,265.0318,322.3275,47.9546,0,U,37185,999,5774,0,-.26E-6,0
BSAT-3B,2010-056B,2026-07-16T07:00:00.268992,1.00270688,.00026754,0.0736,245.1220,297.0340,326.8012,0,U,37207,999,5239,0,-.361E-5,0
BEIDOU-2 G4,2010-057A,2026-07-15T19:15:49.464576,1.00269871,.00056559,3.7161,68.7688,184.0793,129.6659,0,U,37210,999,5757,0,-.126E-5,0
SKYTERRA 1,2010-061A,2026-07-16T05:51:38.778048,1.00270355,.00025611,5.1852,50.8067,26.5971,203.2512,0,U,37218,999,5748,0,-.13E-5,0
HYLAS 1,2010-065A,2026-07-16T04:55:40.266624,1.00641499,.00011694,5.7151,72.6599,145.8386,183.1672,0,U,37237,999,717,0,.126E-5,0
INTELSAT 17 (IS-17),2010-065B,2026-07-16T04:57:21.712320,1.00269284,.00030574,0.0365,99.3839,35.9376,299.0401,0,U,37238,999,5353,0,0,0
BEIDOU-2 IGSO-2,2010-068A,2026-07-15T15:35:22.636320,1.00272942,.00569016,47.4956,271.4764,213.8035,150.3630,0,U,37256,999,5708,0,-.192E-5,0
EUTELSAT KA-SAT 9A,2010-069A,2026-07-16T06:31:10.533216,1.00271046,.00045341,0.0610,359.7158,144.3474,256.8222,0,U,37258,999,4429,0,.51E-6,0
HISPASAT 30W-5,2010-070A,2026-07-16T06:20:04.098048,1.00270251,.00056372,0.0309,108.8869,18.8778,231.3421,0,U,37264,999,5347,0,-.227E-5,0
KOREASAT 6,2010-070B,2026-07-16T07:40:26.445792,1.00271090,.00025544,0.0162,54.2168,75.0148,79.9217,0,U,37265,999,5706,0,-.122E-5,0
BEIDOU-2 IGSO-3,2011-013A,2026-07-15T12:09:31.582656,1.00260311,.00351999,62.4464,39.8847,183.4921,358.8227,0,U,37384,999,5594,0,-.166E-5,0
INTELSAT 28 (IS-28),2011-016A,2026-07-16T06:19:41.634048,1.00272105,.00037193,1.8795,82.2676,40.4363,234.6057,0,U,37392,999,5357,0,-.237E-5,0
YAHSAT 1A,2011-016B,2026-07-14T10:14:30.266016,1.00269506,.00030707,0.0273,65.8741,47.4743,25.0682,0,U,37393,999,4268,0,0,0
SBIRS GEO-1 (USA 230),2011-019A,2026-07-16T05:00:32.300352,1.00272170,.00019263,4.5984,53.0972,56.1202,311.7635,0,U,37481,999,5569,0,.87E-6,0
TELSTAR 14R,2011-021A,2026-07-14T13:07:01.087104,1.00270342,.00016,0.0856,84.9749,1.1935,339.9946,0,U,37602,999,5610,0,-.288E-5,0
GSAT-8,2011-022A,2026-07-16T05:01:47.180640,1.00272000,.00026264,2.2042,81.4677,160.8675,182.2450,0,U,37605,999,5350,0,.73E-6,0
ST-2,2011-022B,2026-07-16T02:32:21.831072,1.00271719,.00015337,0.0153,66.1323,65.2216,288.6986,0,U,37606,999,5556,0,-.222E-5,0
ZHONGXING-10,2011-026A,2026-07-16T03:27:47.903616,1.00273563,.00032781,1.1195,83.8499,19.6863,327.8650,0,U,37677,999,5528,0,-.2E-5,0
SES-3,2011-035A,2026-07-16T05:51:38.778048,1.00271447,.00019923,1.3998,82.7645,33.2008,163.0338,0,U,37748,999,5488,0,-.113E-5,0
KAZSAT-2,2011-035B,2026-07-15T08:38:38.133312,1.00272892,.0001892,0.0270,112.5462,60.6657,336.1516,0,U,37749,999,5368,0,-.207E-5,0
BEIDOU-2 IGSO-4,2011-038A,2026-07-12T21:52:21.720000,1.00279714,.01603423,54.6038,165.4445,231.4539,316.2369,0,U,37763,999,5490,0,-.17E-6,0
ASTRA 1N,2011-041A,2026-07-16T06:34:10.246080,1.00270175,.00057877,0.0617,12.0791,102.5572,297.1895,0,U,37775,999,4481,0,.109E-5,0
BSAT-3C (JCSAT-110R),2011-041B,2026-07-16T07:00:00.268992,1.00270872,.00001738,0.0394,297.0941,264.7173,307.2614,0,U,37776,999,5076,0,-.361E-5,0
PAKSAT-1R,2011-042A,2026-07-16T04:56:47.658624,1.00269121,.00030925,0.7623,84.3194,351.1738,330.7141,0,U,37779,999,5476,0,.143E-5,0
